{"type": "FeatureCollection", "features": [ {"type": "Feature", "properties": {"norad_id": 40799, "name": "COSMOS 2251 DEB", "group": "cosmos-2251-debris", "lat": 39.79897906268652, "lon": 92.0753428407619, "alt_km": 563.7971358905888, "timestamp": "2025-12-22T15:43:49.407993+00:00", "meta": {"OBJECT_NAME": "COSMOS 2251 DEB", "OBJECT_ID": "1993-036BWC", "EPOCH": "2025-12-21T12:16:32.969280", "MEAN_MOTION": 14.96732906, "ECCENTRICITY": 0.01194154, "INCLINATION": 73.9265, "RA_OF_ASC_NODE": 80.504, "ARG_OF_PERICENTER": 320.5269, "MEAN_ANOMALY": 38.7259, "EPHEMERIS_TYPE": 0, "CLASSIFICATION_TYPE": "U", "NORAD_CAT_ID": 40799, "ELEMENT_SET_NO": 999, "REV_AT_EPOCH": 50108, "BSTAR": 0.00030092345, "MEAN_MOTION_DOT": 3.932e-05, "MEAN_MOTION_DDOT": 0}, "tle": {"line1": "1 40799U 93036BWC 25355.51149270  .00003932  00000+0  30092-3 0  9992", "line2": "2 40799  73.9265  80.5040 0119415 320.5269  38.7259 14.96732906501083"}}, "geometry": {"type": "Point", "coordinates": [92.0753428407619, 39.79897906268652]}}, {"type": "Feature", "properties": {"norad_id": 40802, "name": "COSMOS 2251 DEB", "group": "cosmos-2251-debris", "lat": 49.9044964613152, "lon": -66.31174147103346, "alt_km": 641.3783327427273, "timestamp": "2025-12-22T15:43:49.408003+00:00", "meta": {"OBJECT_NAME": "COSMOS 2251 DEB", "OBJECT_ID": "1993-036BWF", "EPOCH": "2025-12-20T16:01:50.950848", "MEAN_MOTION": 14.77686845, "ECCENTRICITY": 0.00629069, "INCLINATION": 74.0403, "RA_OF_ASC_NODE": 137.4571, "ARG_OF_PERICENTER": 234.6618, "MEAN_ANOMALY": 124.8667, "EPHEMERIS_TYPE": 0, "CLASSIFICATION_TYPE": "U", "NORAD_CAT_ID": 40802, "ELEMENT_SET_NO": 999, "REV_AT_EPOCH": 64526, "BSTAR": 0.0005156342, "MEAN_MOTION_DOT": 3.783e-05, "MEAN_MOTION_DDOT": 0}, "tle": {"line1": "1 40802U 93036BWF 25354.66795082  .00003783  00000+0  51563-3 0  9990", "line2": "2 40802  74.0403 137.4571 0062906 234.6618 124.8667 14.77686845645268"}}, "geometry": {"type": "Point", "coordinates": [-66.31174147103346, 49.9044964613152]}}, {"type": "Feature", "properties": {"norad_id": 40803, "name": "COSMOS 2251 DEB", "group": "cosmos-2251-debris", "lat": 48.81971377842663, "lon": -165.92816059731547, "alt_km": 726.9589092799151, "timestamp": "2025-12-22T15:43:49.408013+00:00", "meta": {"OBJECT_NAME": "COSMOS 2251 DEB", "OBJECT_ID": "1993-036BWG", "EPOCH": "2025-12-21T09:22:13.076832", "MEAN_MOTION": 14.51837554, "ECCENTRICITY": 0.00343739, "INCLINATION": 74.0142, "RA_OF_ASC_NODE": 35.5847, "ARG_OF_PERICENTER": 250.91, "MEAN_ANOMALY": 108.8338, "EPHEMERIS_TYPE": 0, "CLASSIFICATION_TYPE": "U", "NORAD_CAT_ID": 40803, "ELEMENT_SET_NO": 999, "REV_AT_EPOCH": 58878, "BSTAR": 0.0002337407, "MEAN_MOTION_DOT": 9.19e-06, "MEAN_MOTION_DDOT": 0}, "tle": {"line1": "1 40803U 93036BWG 25355.39042913  .00000919  00000+0  23374-3 0  9997", "line2": "2 40803  74.0142  35.5847 0034373 250.9100 108.8338 14.51837554588784"}}, "geometry": {"type": "Point", "coordinates": [-165.92816059731547, 48.81971377842663]}}, {"type": "Feature", "properties": {"norad_id": 40808, "name": "COSMOS 2251 DEB", "group": "cosmos-2251-debris", "lat": -60.54945145865615, "lon": -23.222486452717106, "alt_km": 674.7298646332456, "timestamp": "2025-12-22T15:43:49.408022+00:00", "meta": {"OBJECT_NAME": "COSMOS 2251 DEB", "OBJECT_ID": "1993-036BWM", "EPOCH": "2025-12-21T15:48:05.753088", "MEAN_MOTION": 14.67620191, "ECCENTRICITY": 0.0008403, "INCLINATION": 74.0423, "RA_OF_ASC_NODE": 128.2531, "ARG_OF_PERICENTER": 163.7615, "MEAN_ANOMALY": 215.4081, "EPHEMERIS_TYPE": 0, "CLASSIFICATION_TYPE": "U", "NORAD_CAT_ID": 40808, "ELEMENT_SET_NO": 999, "REV_AT_EPOCH": 63750, "BSTAR": 0.0013229, "MEAN_MOTION_DOT": 7.499e-05, "MEAN_MOTION_DDOT": 0}, "tle": {"line1": "1 40808U 93036BWM 25355.65839992  .00007499  00000+0  13229-2 0  9999", "line2": "2 40808  74.0423 128.2531 0008403 163.7615 215.4081 14.67620191637507"}}, "geometry": {"type": "Point", "coordinates": [-23.222486452717106, -60.54945145865615]}}, {"type": "Feature", "properties": {"norad_id": 40810, "name": "COSMOS 2251 DEB", "group": "cosmos-2251-debris", "lat": -26.803797607735934, "lon": -115.83003427472616, "alt_km": 689.6969791036727, "timestamp": "2025-12-22T15:43:49.408033+00:00", "meta": {"OBJECT_NAME": "COSMOS 2251 DEB", "OBJECT_ID": "1993-036BWP", "EPOCH": "2025-12-20T21:37:57.745920", "MEAN_MOTION": 14.58766963, "ECCENTRICITY": 0.0018123, "INCLINATION": 74.0366, "RA_OF_ASC_NODE": 59.1939, "ARG_OF_PERICENTER": 210.007, "MEAN_ANOMALY": 150.0058, "EPHEMERIS_TYPE": 0, "CLASSIFICATION_TYPE": "U", "NORAD_CAT_ID": 40810, "ELEMENT_SET_NO": 999, "REV_AT_EPOCH": 61802, "BSTAR": 0.00043512, "MEAN_MOTION_DOT": 2.008e-05, "MEAN_MOTION_DDOT": 0}, "tle": {"line1": "1 40810U 93036BWP 25354.90136280  .00002008  00000+0  43512-3 0  9999", "line2": "2 40810  74.0366  59.1939 0018123 210.0070 150.0058 14.58766963618023"}}, "geometry": {"type": "Point", "coordinates": [-115.83003427472616, -26.803797607735934]}}, {"type": "Feature", "properties": {"norad_id": 46271, "name": "COSMOS 2251 DEB", "group": "cosmos-2251-debris", "lat": -6.468745011381268, "lon": -118.57555882219249, "alt_km": 696.2933766331926, "timestamp": "2025-12-22T15:43:49.408043+00:00", "meta": {"OBJECT_NAME": "COSMOS 2251 DEB", "OBJECT_ID": "1993-036BWT", "EPOCH": "2025-12-19T22:21:35.328960", "MEAN_MOTION": 14.51444335, "ECCENTRICITY": 0.003987, "INCLINATION": 74.0479, "RA_OF_ASC_NODE": 64.6869, "ARG_OF_PERICENTER": 184.8218, "MEAN_ANOMALY": 175.2565, "EPHEMERIS_TYPE": 0, "CLASSIFICATION_TYPE": "U", "NORAD_CAT_ID": 46271, "ELEMENT_SET_NO": 999, "REV_AT_EPOCH": 84746, "BSTAR": 0.00020357, "MEAN_MOTION_DOT": 7.93e-06, "MEAN_MOTION_DDOT": 0}, "tle": {"line1": "1 46271U 93036BWT 25353.93165890  .00000793  00000+0  20357-3 0  9998", "line2": "2 46271  74.0479  64.6869 0039870 184.8218 175.2565 14.51444335847465"}}, "geometry": {"type": "Point", "coordinates": [-118.57555882219249, -6.468745011381268]}}, {"type": "Feature", "properties": {"norad_id": 46430, "name": "COSMOS 2251 DEB", "group": "cosmos-2251-debris", "lat": -63.73150492226487, "lon": -166.67596878756405, "alt_km": 655.1070499666885, "timestamp": "2025-12-22T15:43:49.408053+00:00", "meta": {"OBJECT_NAME": "COSMOS 2251 DEB", "OBJECT_ID": "1993-036BWU", "EPOCH": "2025-12-19T07:10:40.968192", "MEAN_MOTION": 14.51392906, "ECCENTRICITY": 0.0103211, "INCLINATION": 73.9139, "RA_OF_ASC_NODE": 343.9071, "ARG_OF_PERICENTER": 263.0684, "MEAN_ANOMALY": 95.8727, "EPHEMERIS_TYPE": 0, "CLASSIFICATION_TYPE": "U", "NORAD_CAT_ID": 46430, "ELEMENT_SET_NO": 999, "REV_AT_EPOCH": 79778, "BSTAR": 0.0013871, "MEAN_MOTION_DOT": 5.902e-05, "MEAN_MOTION_DDOT": 0}, "tle": {"line1": "1 46430U 93036BWU 25353.29908528  .00005902  00000+0  13871-2 0  9996", "line2": "2 46430  73.9139 343.9071 0103211 263.0684  95.8727 14.51392906797781"}}, "geometry": {"type": "Point", "coordinates": [-166.67596878756405, -63.73150492226487]}}, {"type": "Feature", "properties": {"norad_id": 46432, "name": "COSMOS 2251 DEB", "group": "cosmos-2251-debris", "lat": -62.80662723002079, "lon": -50.0579431934699, "alt_km": 836.0288211428324, "timestamp": "2025-12-22T15:43:49.408063+00:00", "meta": {"OBJECT_NAME": "COSMOS 2251 DEB", "OBJECT_ID": "1993-036BWW", "EPOCH": "2025-12-22T01:03:47.474208", "MEAN_MOTION": 13.36654939, "ECCENTRICITY": 0.04738658, "INCLINATION": 73.8725, "RA_OF_ASC_NODE": 96.6323, "ARG_OF_PERICENTER": 212.6525, "MEAN_ANOMALY": 332.3153, "EPHEMERIS_TYPE": 0, "CLASSIFICATION_TYPE": "U", "NORAD_CAT_ID": 46432, "ELEMENT_SET_NO": 999, "REV_AT_EPOCH": 67090, "BSTAR": 0.00093620994, "MEAN_MOTION_DOT": 9e-06, "MEAN_MOTION_DDOT": 0}, "tle": {"line1": "1 46432U 93036BWW 25356.04429947  .00000900  00000+0  93621-3 0  9992", "line2": "2 46432  73.8725  96.6323 0473865 212.6525 332.3153 13.36654939670909"}}, "geometry": {"type": "Point", "coordinates": [-50.0579431934699, -62.80662723002079]}}, {"type": "Feature", "properties": {"norad_id": 47045, "name": "COSMOS 2251 DEB", "group": "cosmos-2251-debris", "lat": -23.610528325162562, "lon": 123.72385604939667, "alt_km": 758.1009822261512, "timestamp": "2025-12-22T15:43:49.408073+00:00", "meta": {"OBJECT_NAME": "COSMOS 2251 DEB", "OBJECT_ID": "1993-036BWZ", "EPOCH": "2025-12-22T03:19:52.927392", "MEAN_MOTION": 14.38905079, "ECCENTRICITY": 0.00303771, "INCLINATION": 74.0579, "RA_OF_ASC_NODE": 131.8525, "ARG_OF_PERICENTER": 271.3188, "MEAN_ANOMALY": 268.7855, "EPHEMERIS_TYPE": 0, "CLASSIFICATION_TYPE": "U", "NORAD_CAT_ID": 47045, "ELEMENT_SET_NO": 999, "REV_AT_EPOCH": 7940, "BSTAR": 8.4130213e-05, "MEAN_MOTION_DOT": 2.34e-06, "MEAN_MOTION_DDOT": 0}, "tle": {"line1": "1 47045U 93036BWZ 25356.13880703  .00000234  00000+0  84130-4 0  9990", "line2": "2 47045  74.0579 131.8525 0030377 271.3188 268.7855 14.38905079 79406"}}, "geometry": {"type": "Point", "coordinates": [123.72385604939667, -23.610528325162562]}}, {"type": "Feature", "properties": {"norad_id": 47048, "name": "COSMOS 2251 DEB", "group": "cosmos-2251-debris", "lat": 18.42479029391906, "lon": -54.0830196421037, "alt_km": 743.4573671729622, "timestamp": "2025-12-22T15:43:49.408083+00:00", "meta": {"OBJECT_NAME": "COSMOS 2251 DEB", "OBJECT_ID": "1993-036BXC", "EPOCH": "2025-12-19T13:47:33.177120", "MEAN_MOTION": 14.52356803, "ECCENTRICITY": 0.0132576, "INCLINATION": 73.9784, "RA_OF_ASC_NODE": 306.2511, "ARG_OF_PERICENTER": 132.3729, "MEAN_ANOMALY": 347.2197, "EPHEMERIS_TYPE": 0, "CLASSIFICATION_TYPE": "U", "NORAD_CAT_ID": 47048, "ELEMENT_SET_NO": 999, "REV_AT_EPOCH": 59789, "BSTAR": 0.00066595, "MEAN_MOTION_DOT": 3.012e-05, "MEAN_MOTION_DDOT": 0}, "tle": {"line1": "1 47048U 93036BXC 25353.57468955  .00003012  00000+0  66595-3 0  9990", "line2": "2 47048  73.9784 306.2511 0132576 132.3729 347.2197 14.52356803597890"}}, "geometry": {"type": "Point", "coordinates": [-54.0830196421037, 18.42479029391906]}}]}